{"type":"FeatureCollection","features":[{"type":"Feature","geometry":{"type":"Polygon","coordinates":[[[-16.42496,12.3608],[-16.43922,12.3608],[-16.43922,12.36285],[-16.42527,12.36463],[-16.42496,12.36467],[-16.42496,12.3608]]]},"properties":{"region":"Cacheu","district":"Sao Domingos","floods_1m":1,"floods_2m":1,"floods_3m":1,"first_flood_m":1,"nests":true}},{"type":"Feature","geometry":{"type":"Polygon","coordinates":[[[-16.65309,12.3583],[-16.65309,12.34654],[-16.65958,12.34654],[-16.65958,12.34681],[-16.65986,12.34681],[-16.65986,12.34736],[-16.66042,12.34736],[-16.66042,12.34708],[-16.66097,12.34708],[-16.66097,12.34681],[-16.66153,12.34681],[-16.66153,12.34654],[-16.66735,12.34654],[-16.66735,12.35866],[-16.66192,12.35865],[-16.65694,12.35884],[-16.65309,12.3583]]]},"properties":{"region":"Cacheu","district":"Sao Domingos","floods_1m":1,"floods_2m":1,"floods_3m":1,"first_flood_m":1,"nests":true}},{"type":"Feature","geometry":{"type":"Polygon","coordinates":[[[-16.53902,12.3587],[-16.53902,12.34654],[-16.55328,12.34654],[-16.55328,12.35774],[-16.5434,12.36],[-16.53902,12.3587]]]},"properties":{"region":"Cacheu","district":"Sao Domingos","floods_1m":1,"floods_2m":1,"floods_3m":1,"first_flood_m":1,"nests":true}},{"type":"Feature","geometry":{"type":"Polygon","coordinates":[[[-16.46773,12.34654],[-16.48199,12.34654],[-16.48199,12.35739],[-16.46773,12.35921],[-16.46773,12.34654]]]},"properties":{"region":"Cacheu","district":"Sao Domingos","floods_1m":1,"floods_2m":1,"floods_3m":1,"first_flood_m":1,"nests":true}},{"type":"Feature","geometry":{"type":"Polygon","coordinates":[[[-16.45348,12.3608],[-16.45531,12.3608],[-16.45348,12.36103],[-16.45348,12.3608]]]},"properties":{"region":"Cacheu","district":"Sao Domingos","floods_1m":0,"floods_2m":0,"floods_3m":1,"first_flood_m":3,"nests":true}},{"type":"Feature","geometry":{"type":"Polygon","coordinates":[[[-16.48199,12.34654],[-16.49625,12.34654],[-16.49625,12.35391],[-16.48546,12.35695],[-16.48199,12.35739],[-16.48199,12.34654]]]},"properties":{"region":"Cacheu","district":"Sao Domingos","floods_1m":0,"floods_2m":1,"floods_3m":1,"first_flood_m":2,"nests":true}},{"type":"Feature","geometry":{"type":"Polygon","coordinates":[[[-16.43922,12.34654],[-16.45348,12.34654],[-16.45348,12.3608],[-16.43922,12.3608],[-16.43922,12.34654]]]},"properties":{"region":"Cacheu","district":"Sao Domingos","floods_1m":1,"floods_2m":1,"floods_3m":1,"first_flood_m":1,"nests":true}},{"type":"Feature","geometry":{"type":"Polygon","coordinates":[[[-16.66735,12.35866],[-16.66735,12.34654],[-16.6816,12.34654],[-16.6816,12.35868],[-16.66912,12.35866],[-16.66735,12.35866]]]},"properties":{"region":"Cacheu","district":"Sao Domingos","floods_1m":1,"floods_2m":1,"floods_3m":1,"first_flood_m":1,"nests":true}},{"type":"Feature","geometry":{"type":"Polygon","coordinates":[[[-16.39644,12.3635],[-16.39644,12.3608],[-16.4107,12.3608],[-16.4107,12.36473],[-16.40023,12.36384],[-16.39644,12.3635]]]},"properties":{"region":"Cacheu","district":"Sao Domingos","floods_1m":0,"floods_2m":1,"floods_3m":1,"first_flood_m":2,"nests":true}},{"type":"Feature","geometry":{"type":"Polygon","coordinates":[[[-16.52477,12.35446],[-16.52477,12.34654],[-16.53902,12.34654],[-16.53902,12.3587],[-16.53399,12.3572],[-16.53391,12.35718],[-16.52667,12.35502],[-16.52477,12.35446]]]},"properties":{"region":"Cacheu","district":"Sao Domingos","floods_1m":1,"floods_2m":1,"floods_3m":1,"first_flood_m":1,"nests":true}},{"type":"Feature","geometry":{"type":"Polygon","coordinates":[[[-16.42496,12.34654],[-16.43922,12.34654],[-16.43922,12.3608],[-16.42496,12.3608],[-16.42496,12.34654]]]},"properties":{"region":"Cacheu","district":"Sao Domingos","floods_1m":1,"floods_2m":1,"floods_3m":1,"first_flood_m":1,"nests":true}},{"type":"Feature","geometry":{"type":"Polygon","coordinates":[[[-16.38219,12.36221],[-16.38219,12.3608],[-16.39644,12.3608],[-16.39644,12.3635],[-16.38524,12.36249],[-16.38219,12.36221]]]},"properties":{"region":"Cacheu","district":"Sao Domingos","floods_1m":1,"floods_2m":1,"floods_3m":1,"first_flood_m":1,"nests":true}},{"type":"Feature","geometry":{"type":"Polygon","coordinates":[[[-16.4107,12.36473],[-16.4107,12.3608],[-16.42496,12.3608],[-16.42496,12.36467],[-16.41897,12.36543],[-16.4107,12.36473]]]},"properties":{"region":"Cacheu","district":"Sao Domingos","floods_1m":1,"floods_2m":1,"floods_3m":1,"first_flood_m":1,"nests":true}},{"type":"Feature","geometry":{"type":"Polygon","coordinates":[[[-16.43922,12.3608],[-16.45348,12.3608],[-16.45348,12.36103],[-16.44979,12.3615],[-16.44113,12.36261],[-16.43922,12.36285],[-16.43922,12.3608]]]},"properties":{"region":"Cacheu","district":"Sao Domingos","floods_1m":1,"floods_2m":1,"floods_3m":1,"first_flood_m":1,"nests":true}},{"type":"Feature","geometry":{"type":"Polygon","coordinates":[[[-16.45348,12.34654],[-16.46773,12.34654],[-16.46773,12.35921],[-16.4633,12.35978],[-16.45531,12.3608],[-16.45348,12.3608],[-16.45348,12.34654]]]},"properties":{"region":"Cacheu","district":"Sao Domingos","floods_1m":1,"floods_2m":1,"floods_3m":1,"first_flood_m":1,"nests":true}},{"type":"Feature","geometry":{"type":"Polygon","coordinates":[[[-16.36793,12.3608],[-16.38219,12.3608],[-16.38219,12.36221],[-16.37907,12.36193],[-16.37687,12.36778],[-16.37472,12.37348],[-16.37416,12.37468],[-16.37366,12.37506],[-16.36793,12.37506],[-16.36793,12.3608]]]},"properties":{"region":"Cacheu","district":"Sao Domingos","floods_1m":1,"floods_2m":0,"floods_3m":0,"first_flood_m":1,"nests":false}},{"type":"Feature","geometry":{"type":"Polygon","coordinates":[[[-16.6816,12.35868],[-16.6816,12.34654],[-16.69586,12.34654],[-16.69586,12.35341],[-16.6918,12.35629],[-16.68841,12.35869],[-16.6816,12.35868]]]},"properties":{"region":"Cacheu","district":"Sao Domingos","floods_1m":0,"floods_2m":0,"floods_3m":1,"first_flood_m":3,"nests":true}},{"type":"Feature","geometry":{"type":"Polygon","coordinates":[[[-16.4107,12.34654],[-16.42496,12.34654],[-16.42496,12.3608],[-16.4107,12.3608],[-16.4107,12.34654]]]},"properties":{"region":"Cacheu","district":"Sao Domingos","floods_1m":0,"floods_2m":1,"floods_3m":1,"first_flood_m":2,"nests":true}},{"type":"Feature","geometry":{"type":"Polygon","coordinates":[[[-16.71012,12.34018],[-16.71489,12.33993],[-16.71012,12.34331],[-16.71012,12.34018]]]},"properties":{"region":"Cacheu","district":"Sao Domingos","floods_1m":0,"floods_2m":1,"floods_3m":1,"first_flood_m":2,"nests":true}},{"type":"Feature","geometry":{"type":"Polygon","coordinates":[[[-16.39644,12.34654],[-16.4107,12.34654],[-16.4107,12.3608],[-16.39644,12.3608],[-16.39644,12.34654]]]},"properties":{"region":"Cacheu","district":"Sao Domingos","floods_1m":0,"floods_2m":1,"floods_3m":1,"first_flood_m":2,"nests":true}},{"type":"Feature","geometry":{"type":"Polygon","coordinates":[[[-16.69586,12.34654],[-16.70556,12.34654],[-16.70532,12.34671],[-16.69586,12.35341],[-16.69586,12.34654]]]},"properties":{"region":"Cacheu","district":"Sao Domingos","floods_1m":0,"floods_2m":1,"floods_3m":1,"first_flood_m":2,"nests":true}},{"type":"Feature","geometry":{"type":"Polygon","coordinates":[[[-16.51051,12.35021],[-16.51051,12.34654],[-16.52477,12.34654],[-16.52477,12.35446],[-16.5186,12.35262],[-16.51051,12.35021]]]},"properties":{"region":"Cacheu","district":"Sao Domingos","floods_1m":0,"floods_2m":0,"floods_3m":1,"first_flood_m":3,"nests":true}},{"type":"Feature","geometry":{"type":"Polygon","coordinates":[[[-16.38219,12.34654],[-16.39644,12.34654],[-16.39644,12.3608],[-16.38219,12.3608],[-16.38219,12.34654]]]},"properties":{"region":"Cacheu","district":"Sao Domingos","floods_1m":1,"floods_2m":1,"floods_3m":1,"first_flood_m":1,"nests":true}},{"type":"Feature","geometry":{"type":"Polygon","coordinates":[[[-16.69586,12.34403],[-16.69708,12.34403],[-16.69708,12.34375],[-16.69958,12.34375],[-16.69958,12.34347],[-16.69986,12.34347],[-16.69986,12.34319],[-16.70014,12.34319],[-16.70014,12.34292],[-16.70042,12.34292],[-16.70042,12.34264],[-16.70097,12.34264],[-16.70097,12.34236],[-16.70125,12.34236],[-16.70125,12.34208],[-16.7018,12.34208],[-16.7018,12.34181],[-16.70236,12.34181],[-16.70236,12.34153],[-16.7032,12.34153],[-16.7032,12.34097],[-16.70375,12.34097],[-16.70375,12.34069],[-16.70458,12.34069],[-16.70458,12.34042],[-16.70516,12.34044],[-16.71012,12.34018],[-16.71012,12.34331],[-16.70556,12.34654],[-16.69586,12.34654],[-16.69586,12.34403]]]},"properties":{"region":"Cacheu","district":"Sao Domingos","floods_1m":1,"floods_2m":1,"floods_3m":1,"first_flood_m":1,"nests":true}},{"type":"Feature","geometry":{"type":"Polygon","coordinates":[[[-16.29664,12.40357],[-16.3109,12.40357],[-16.3109,12.40761],[-16.30403,12.4115],[-16.29664,12.41569],[-16.29664,12.40357]]]},"properties":{"region":"Cacheu","district":"Sao Domingos","floods_1m":0,"floods_2m":1,"floods_3m":1,"first_flood_m":2,"nests":true}},{"type":"Feature","geometry":{"type":"Polygon","coordinates":[[[-14.95246,11.00629],[-14.95639,11.00629],[-14.95639,11.02055],[-14.94534,11.02055],[-14.95094,11.00934],[-14.9515,11.00821],[-14.95246,11.00629]]]},"properties":{"region":"Tombali","district":"Cacine","floods_1m":0,"floods_2m":1,"floods_3m":1,"first_flood_m":2,"nests":true}},{"type":"Feature","geometry":{"type":"Polygon","coordinates":[[[-14.95639,11.00075],[-14.95639,11.00629],[-14.95246,11.00629],[-14.9528,11.00561],[-14.95507,11.00254],[-14.95639,11.00075]]]},"properties":{"region":"Tombali","district":"Cacine","floods_1m":0,"floods_2m":0,"floods_3m":1,"first_flood_m":3,"nests":true}}]}