{"type":"FeatureCollection","features":[{"type":"Feature","id":0,"geometry":{"type":"Point","coordinates":[-2.26873,4.900879]},"properties":{"Long":-2.26873,"Lat":4.900879,"System":"Ankobra River","Title":"Histopathology and heavy metals bioaccumulation in gills and liver of Chrysichthys nigrodigitatus from Ankobra river estuary","Author":"Mary Opeyemi Soetan","Year":2020,"Type":"Thesis","Category":"Biological","Ecosystems":"Brackish water","Unit_of_An":"Benthos"}},{"type":"Feature","id":1,"geometry":{"type":"Point","coordinates":[-1.431324,5.067973]},"properties":{"Long":-1.431324,"Lat":5.067973,"System":"Brenu Lagoon","Title":"Wet weight of zoobenthos in Brenu Lagoon of Ghana, West Africa","Author":"Abigail Nsiah Akuoko","Year":2021,"Type":"Thesis","Category":"Biological","Ecosystems":"Brackish water","Unit_of_An":"Benthos"}},{"type":"Feature","id":2,"geometry":{"type":"Point","coordinates":[-1.321984,5.097637]},"properties":{"Long":-1.321984,"Lat":5.097637,"System":"Kakum Estuary","Title":"Wet weight of zoobenthos in Kakum Estuary of Ghana, West Africa","Author":"Abigail Nsiah Akuoko","Year":2021,"Type":"Thesis","Category":"Biological","Ecosystems":"Brackish water","Unit_of_An":"Benthos"}},{"type":"Feature","id":3,"geometry":{"type":"Point","coordinates":[-1.321984,5.097637]},"properties":{"Long":-1.321984,"Lat":5.097637,"System":"Kakum Estuary","Title":"Impact of insecticide (imidacloprid) on the length at first hatch of blackchin tilapia (Sarotherodon melanotheron)","Author":"Emmanuel Sandy Ofosu","Year":2021,"Type":"Thesis","Category":"Biological","Ecosystems":"Brackish water","Unit_of_An":"Demersal"}},{"type":"Feature","id":4,"geometry":{"type":"Point","coordinates":[0.665189,5.781421]},"properties":{"Long":0.665189,"Lat":5.781421,"System":"Volta Estuary","Title":"Mesozooplankton abundance and composition in the Volta estuary","Author":"Docia Agyapong","Year":2022,"Type":"Thesis","Category":"Biological","Ecosystems":"Brackish water","Unit_of_An":"Plankton"}},{"type":"Feature","id":5,"geometry":{"type":"Point","coordinates":[0.676167,5.769892]},"properties":{"Long":0.676167,"Lat":5.769892,"System":"Volta Estuary","Title":"Impact of sea surface warming and increasing salinity on mesozooplankton in the Volta estaury","Author":"Docia Agyapong","Year":2022,"Type":"Thesis","Category":"Biological","Ecosystems":"Brackish water","Unit_of_An":"Plankton"}},{"type":"Feature","id":6,"geometry":{"type":"Point","coordinates":[1.161761,6.074273]},"properties":{"Long":1.161761,"Lat":6.074273,"System":"Denu","Title":"Microplastic contamination of sea water and selected fish species from the coast of Ghana, West Africa","Author":"Francis Nuamah","Year":2021,"Type":"Thesis","Category":"Biological","Ecosystems":"Marine","Unit_of_An":"Nekton"}},{"type":"Feature","id":7,"geometry":{"type":"Point","coordinates":[0.040893,5.647237]},"properties":{"Long":0.040893,"Lat":5.647237,"System":"Tema","Title":"Microplastic contamination of sea water and selected fish species from the coast of Ghana, West Africa","Author":"Francis Nuamah","Year":2021,"Type":"Thesis","Category":"Biological","Ecosystems":"Marine","Unit_of_An":"Nekton"}},{"type":"Feature","id":8,"geometry":{"type":"Point","coordinates":[-1.299215,5.068215]},"properties":{"Long":-1.299215,"Lat":5.068215,"System":"Cape Coast","Title":"Microplastic contamination of sea water and selected fish species from the coast of Ghana, West Africa","Author":"Francis Nuamah","Year":2021,"Type":"Thesis","Category":"Biological","Ecosystems":"Marine","Unit_of_An":"Nekton"}},{"type":"Feature","id":9,"geometry":{"type":"Point","coordinates":[-1.676141,4.941459]},"properties":{"Long":-1.676141,"Lat":4.941459,"System":"Sekondi","Title":"Microplastic contamination of sea water and selected fish species from the coast of Ghana, West Africa","Author":"Francis Nuamah","Year":2021,"Type":"Thesis","Category":"Biological","Ecosystems":"Marine","Unit_of_An":"Nekton"}},{"type":"Feature","id":10,"geometry":{"type":"Point","coordinates":[-2.26873,4.900879]},"properties":{"Long":-2.26873,"Lat":4.900879,"System":"Ankobra Estuary","Title":"Morphometry and condition factor of Chrysichthys nigrodigitatus from Ankobra river estuary in Ghana, West Africa","Author":"Mary Opeyemi Soetan","Year":2020,"Type":"Thesis","Category":"Biological","Ecosystems":"Brackish water","Unit_of_An":"Nekton"}},{"type":"Feature","id":11,"geometry":{"type":"Point","coordinates":[-1.321984,5.097637]},"properties":{"Long":-1.321984,"Lat":5.097637,"System":"Kakum Estuary","Title":"Morphometry of blackchin tilapia, sarotherodon melanotheron exposed to different concentrations of insecticide (imidacloprid)","Author":"Emmanuel Sandy Ofosu","Year":2021,"Type":"Thesis","Category":"Biological","Ecosystems":"Brackish water","Unit_of_An":"Nekton"}},{"type":"Feature","id":12,"geometry":{"type":"Point","coordinates":[-2.878215,5.046748]},"properties":{"Long":-2.878215,"Lat":5.046748,"System":"Domili lagoon","Title":"Environmental influences on fecundity of blackchin tilapia (Sarotherodon melanotheron) in selected coastal lagoons of Ghana, West Africa","Author":"Jeremiah Samson Kapatu","Year":2022,"Type":"Thesis","Category":"Biological","Ecosystems":"Brackish water","Unit_of_An":"Nekton"}},{"type":"Feature","id":13,"geometry":{"type":"Point","coordinates":[-1.258403,5.106858]},"properties":{"Long":-1.258403,"Lat":5.106858,"System":"Fosu Lagoon","Title":"Environmental influences on fecundity of blackchin tilapia (Sarotherodon melanotheron) in selected coastal lagoons of Ghana, West Africa","Author":"Jeremiah Samson Kapatu","Year":2022,"Type":"Thesis","Category":"Biological","Ecosystems":"Brackish water","Unit_of_An":"Nekton"}},{"type":"Feature","id":14,"geometry":{"type":"Point","coordinates":[-1.357044,5.085165]},"properties":{"Long":-1.357044,"Lat":5.085165,"System":"Benya lagoon","Title":"Environmental influences on fecundity of blackchin tilapia (Sarotherodon melanotheron) in selected coastal lagoons of Ghana, West Africa","Author":"Jeremiah Samson Kapatu","Year":2022,"Type":"Thesis","Category":"Biological","Ecosystems":"Brackish water","Unit_of_An":"Nekton"}},{"type":"Feature","id":15,"geometry":{"type":"Point","coordinates":[-0.034881,5.622001]},"properties":{"Long":-0.034881,"Lat":5.622001,"System":"Sakumo Lagoon","Title":"Environmental influences on fecundity of blackchin tilapia (Sarotherodon melanotheron) in selected coastal lagoons of Ghana, West Africa","Author":"Jeremiah Samson Kapatu","Year":2022,"Type":"Thesis","Category":"Biological","Ecosystems":"Brackish water","Unit_of_An":"Nekton"}},{"type":"Feature","id":16,"geometry":{"type":"Point","coordinates":[0.937886,5.892379]},"properties":{"Long":0.937886,"Lat":5.892379,"System":"Keta lagoon","Title":"Environmental influences on fecundity of blackchin tilapia (Sarotherodon melanotheron) in selected coastal lagoons of Ghana, West Africa","Author":"Jeremiah Samson Kapatu","Year":2022,"Type":"Thesis","Category":"Biological","Ecosystems":"Brackish water","Unit_of_An":"Nekton"}},{"type":"Feature","id":17,"geometry":{"type":"Point","coordinates":[-2.878215,5.046748]},"properties":{"Long":-2.878215,"Lat":5.046748,"System":"Domili lagoon","Title":"Food habit of blackchin tilapia (Sarotherodon melanotheron) in selected coastal lagoons of Ghana, West Africa","Author":"Jeremiah Samson Kapatu","Year":2022,"Type":"Thesis","Category":"Biological","Ecosystems":"Brackish water","Unit_of_An":"Nekton"}},{"type":"Feature","id":18,"geometry":{"type":"Point","coordinates":[-1.258403,5.106858]},"properties":{"Long":-1.258403,"Lat":5.106858,"System":"Fosu Lagoon","Title":"Food habit of blackchin tilapia (Sarotherodon melanotheron) in selected coastal lagoons of Ghana, West Africa","Author":"Jeremiah Samson Kapatu","Year":2022,"Type":"Thesis","Category":"Biological","Ecosystems":"Brackish water","Unit_of_An":"Nekton"}},{"type":"Feature","id":19,"geometry":{"type":"Point","coordinates":[-1.357044,5.085165]},"properties":{"Long":-1.357044,"Lat":5.085165,"System":"Benya lagoon","Title":"Food habit of blackchin tilapia (Sarotherodon melanotheron) in selected coastal lagoons of Ghana, West Africa","Author":"Jeremiah Samson Kapatu","Year":2022,"Type":"Thesis","Category":"Biological","Ecosystems":"Brackish water","Unit_of_An":"Nekton"}},{"type":"Feature","id":20,"geometry":{"type":"Point","coordinates":[-0.034881,5.622001]},"properties":{"Long":-0.034881,"Lat":5.622001,"System":"Sakumo Lagoon","Title":"Food habit of blackchin tilapia (Sarotherodon melanotheron) in selected coastal lagoons of Ghana, West Africa","Author":"Jeremiah Samson Kapatu","Year":2022,"Type":"Thesis","Category":"Biological","Ecosystems":"Brackish water","Unit_of_An":"Nekton"}},{"type":"Feature","id":21,"geometry":{"type":"Point","coordinates":[0.937886,5.892379]},"properties":{"Long":0.937886,"Lat":5.892379,"System":"Keta lagoon","Title":"Food habit of blackchin tilapia (Sarotherodon melanotheron) in selected coastal lagoons of Ghana, West Africa","Author":"Jeremiah Samson Kapatu","Year":2022,"Type":"Thesis","Category":"Biological","Ecosystems":"Brackish water","Unit_of_An":"Nekton"}},{"type":"Feature","id":22,"geometry":{"type":"Point","coordinates":[-1.321984,5.097637]},"properties":{"Long":-1.321984,"Lat":5.097637,"System":"Kakum Estuary","Title":"Mortality rate of blackchin tilapia (Sarotherodon melanotheron) larvae exposed to insecticide (imidacloprid)","Author":"Emmanuel Sandy Ofosu","Year":2021,"Type":"Thesis","Category":"Biological","Ecosystems":"Brackish water","Unit_of_An":"Plankton"}},{"type":"Feature","id":23,"geometry":{"type":"Point","coordinates":[-1.357044,5.085165]},"properties":{"Long":-1.357044,"Lat":5.085165,"System":"Benya lagoon","Title":"Phytoplankton composition of two coastal lagoons in Ghana, West Africa","Author":"Eric Krampah","Year":2021,"Type":"Thesis","Category":"Biological","Ecosystems":"Brackish water","Unit_of_An":"Plankton"}},{"type":"Feature","id":24,"geometry":{"type":"Point","coordinates":[-0.9177,5.207098]},"properties":{"Long":-0.9177,"Lat":5.207098,"System":"Narkwa Lagoon","Title":"Phytoplankton composition of two coastal lagoons in Ghana, West Africa","Author":"Eric Krampah","Year":2021,"Type":"Thesis","Category":"Biological","Ecosystems":"Brackish water","Unit_of_An":"Plankton"}},{"type":"Feature","id":25,"geometry":{"type":"Point","coordinates":[-2.27305,4.905897]},"properties":{"Long":-2.27305,"Lat":4.905897,"System":"Ankobra","Title":"Assessment of Livelihood adaptation and migration in selected estuarine communities along the coast of Ghana, West Africa","Author":"Cynthia Kutir","Year":2021,"Type":"Thesis","Category":"Socioeconomic","Ecosystems":"Community","Unit_of_An":"Atmosphere"}},{"type":"Feature","id":26,"geometry":{"type":"Point","coordinates":[-1.605186,5.030399]},"properties":{"Long":-1.605186,"Lat":5.030399,"System":"Anlo beach","Title":"Assessment of Livelihood adaptation and migration in selected estuarine communities along the coast of Ghana, West Africa","Author":"Cynthia Kutir","Year":2021,"Type":"Thesis","Category":"Socioeconomic","Ecosystems":"Community","Unit_of_An":"Atmosphere"}},{"type":"Feature","id":27,"geometry":{"type":"Point","coordinates":[0.659904,5.772779]},"properties":{"Long":0.659904,"Lat":5.772779,"System":"Kewunor","Title":"Assessment of Livelihood adaptation and migration in selected estuarine communities along the coast of Ghana, West Africa","Author":"Cynthia Kutir","Year":2021,"Type":"Thesis","Category":"Socioeconomic","Ecosystems":"Community","Unit_of_An":"Atmosphere"}},{"type":"Feature","id":28,"geometry":{"type":"Point","coordinates":[-0.304549,5.512949]},"properties":{"Long":-0.304549,"Lat":5.512949,"System":"Faana","Title":"Assessment of Livelihood adaptation and migration in selected estuarine communities along the coast of Ghana, West Africa","Author":"Cynthia Kutir","Year":2021,"Type":"Thesis","Category":"Socioeconomic","Ecosystems":"Community","Unit_of_An":"Atmosphere"}},{"type":"Feature","id":29,"geometry":{"type":"Point","coordinates":[-1.322911,5.096761]},"properties":{"Long":-1.322911,"Lat":5.096761,"System":"Iture","Title":"Assessment of Livelihood adaptation and migration in selected estuarine communities along the coast of Ghana, West Africa","Author":"Cynthia Kutir","Year":2021,"Type":"Thesis","Category":"Socioeconomic","Ecosystems":"Community","Unit_of_An":"Atmosphere"}},{"type":"Feature","id":30,"geometry":{"type":"Point","coordinates":[1.042241,6.002827]},"properties":{"Long":1.042241,"Lat":6.002827,"System":"Ketu South","Title":"Vulnerability to flooding in coastal communities of Ketu South Municipality of Ghana, West Africa","Author":"Daystar Babanawo","Year":2021,"Type":"Thesis","Category":"Socioeconomic","Ecosystems":"Community","Unit_of_An":"Atmosphere"}},{"type":"Feature","id":31,"geometry":{"type":"Point","coordinates":[-2.27305,4.905897]},"properties":{"Long":-2.27305,"Lat":4.905897,"System":"Ankobra","Title":"Impact of climate and land use land cover changes on flood risks in the Ankobra River Basin Coastal Area in Ghana, West Africa","Author":"Tchaka Pulumuka-Kamanga","Year":2021,"Type":"Thesis","Category":"Socioeconomic","Ecosystems":"Brackishwater","Unit_of_An":"Atmosphere"}},{"type":"Feature","id":32,"geometry":{"type":"Point","coordinates":[-2.26873,4.900879]},"properties":{"Long":-2.26873,"Lat":4.900879,"System":"Ankobra Estuary","Title":"Physico-chemical parameters of Ankobra river measured from December 2020-June 2021","Author":"Mary Opeyemi Soetan","Year":2020,"Type":"Thesis","Category":"Physio-Chemical","Ecosystems":"Freshwater","Unit_of_An":"Hydrosphere"}},{"type":"Feature","id":33,"geometry":{"type":"Point","coordinates":[0.934172,5.941337]},"properties":{"Long":0.934172,"Lat":5.941337,"System":"Keta Lagoon","Title":"Physico-chemical parameters of Keta Lagoon measured from November 2020 to March 2021","Author":"Eric Duku","Year":2020,"Type":"Thesis","Category":"Physio-Chemical","Ecosystems":"Brackishwater","Unit_of_An":"Hydrosphere"}},{"type":"Feature","id":34,"geometry":{"type":"Point","coordinates":[-1.617756,5.028429]},"properties":{"Long":-1.617756,"Lat":5.028429,"System":"Pra river","Title":"Physicochemical characteristics of river Pra and Ankobra in Ghana; July 2020 - July 2021","Author":"Charles Abimbola Faseyi","Year":2021,"Type":"Thesis","Category":"Physio-Chemical","Ecosystems":"Freshwater","Unit_of_An":"Hydrosphere / Lithosphere"}},{"type":"Feature","id":35,"geometry":{"type":"Point","coordinates":[-2.268729,4.903485]},"properties":{"Long":-2.268729,"Lat":4.903485,"System":"Ankobra river","Title":"Physicochemical characteristics of river Pra and Ankobra in Ghana; July 2020 - July 2021","Author":"Charles Abimbola Faseyi","Year":2021,"Type":"Thesis","Category":"Physio-Chemical","Ecosystems":"Freshwater","Unit_of_An":"Hydrosphere / Lithosphere"}},{"type":"Feature","id":36,"geometry":{"type":"Point","coordinates":[-1.357044,5.085165]},"properties":{"Long":-1.357044,"Lat":5.085165,"System":"Benya lagoon","Title":"Physicochemical parameters measured in Narkwa and Brenya lagoons from August 2020 - August 2021","Author":"Eric Krampah","Year":2021,"Type":"Thesis","Category":"Physio-Chemical","Ecosystems":"Brackishwater","Unit_of_An":"Hydrosphere"}},{"type":"Feature","id":37,"geometry":{"type":"Point","coordinates":[-0.9177,5.207098]},"properties":{"Long":-0.9177,"Lat":5.207098,"System":"Narkwa Lagoon","Title":"Physicochemical parameters measured in Narkwa and Brenya lagoons from August 2020 - August 2021","Author":"Eric Krampah","Year":2021,"Type":"Thesis","Category":"Physio-Chemical","Ecosystems":"Brackishwater","Unit_of_An":"Hydrosphere"}},{"type":"Feature","id":38,"geometry":{"type":"Point","coordinates":[-1.2601262363334413,5.10831705037015]},"properties":{"Long":0,"Lat":0,"System":"Fosu Lagoon","Title":"Desktop analysis of dissolved oxygen concentrations measured in the Fosu Lagoon 2000 – 2022","Author":" Nanabanyin Okwentsie Ekumah","Year":2022,"Type":" ","Category":" ","Ecosystems":" ","Unit_of_An":" "}}]}